$$SOE
2461281.500000000, A.D. 2026-Aug-29 00:00:00.0000, 4.952766933834744E+09, -1.124125901713264E+09, -2.317205697297705E+09,
2461288.500000000, A.D. 2026-Sep-05 00:00:00.0000, 4.952696915234816E+09, -1.121476546047194E+09, -2.319081541899265E+09,
2461295.500000000, A.D. 2026-Sep-12 00:00:00.0000, 4.952625541593325E+09, -1.118826926003092E+09, -2.320956738473207E+09,
2461302.500000000, A.D. 2026-Sep-19 00:00:00.0000, 4.952552811511445E+09, -1.116177043335821E+09, -2.322831286408699E+09,
2461309.500000000, A.D. 2026-Sep-26 00:00:00.0000, 4.952478723969405E+09, -1.113526900382425E+09, -2.324705185143390E+09,
2461316.500000000, A.D. 2026-Oct-03 00:00:00.0000, 4.952403278396728E+09, -1.110876499826760E+09, -2.326578434153722E+09,
2461323.500000000, A.D. 2026-Oct-10 00:00:00.0000, 4.952326474655891E+09, -1.108225844556820E+09, -2.328451032945809E+09,
2461330.500000000, A.D. 2026-Oct-17 00:00:00.0000, 4.952248312991043E+09, -1.105574937595603E+09, -2.330322981049986E+09,
2461337.500000000, A.D. 2026-Oct-24 00:00:00.0000, 4.952168793966151E+09, -1.102923782128065E+09, -2.332194278022996E+09,
2461344.500000000, A.D. 2026-Oct-31 00:00:00.0000, 4.952087918491378E+09, -1.100272381690795E+09, -2.334064923472218E+09,
2461351.500000000, A.D. 2026-Nov-07 00:00:00.0000, 4.952005688276727E+09, -1.097620740450336E+09, -2.335934917126811E+09,
2461358.500000000, A.D. 2026-Nov-14 00:00:00.0000, 4.951922106913848E+09, -1.094968862682700E+09, -2.337804258901475E+09,
2461365.500000000, A.D. 2026-Nov-21 00:00:00.0000, 4.951837179774234E+09, -1.092316750772236E+09, -2.339672948730699E+09,
2461372.500000000, A.D. 2026-Nov-28 00:00:00.0000, 4.951750911725734E+09, -1.089664404737885E+09, -2.341540986327521E+09,
2461379.500000000, A.D. 2026-Dec-05 00:00:00.0000, 4.951663306286919E+09, -1.087011823943172E+09, -2.343408371252140E+09,
2461386.500000000, A.D. 2026-Dec-12 00:00:00.0000, 4.951574366384201E+09, -1.084359007878936E+09, -2.345275103050943E+09,
2461393.500000000, A.D. 2026-Dec-19 00:00:00.0000, 4.951484094824479E+09, -1.081705956012379E+09, -2.347141181292119E+09,
2461400.500000000, A.D. 2026-Dec-26 00:00:00.0000, 4.951392494340843E+09, -1.079052667570521E+09, -2.349006605555473E+09,
2461407.500000000, A.D. 2027-Jan-02 00:00:00.0000, 4.951299567486946E+09, -1.076399141449068E+09, -2.350871375417182E+09,
2461414.500000000, A.D. 2027-Jan-09 00:00:00.0000, 4.951205316496351E+09, -1.073745376226724E+09, -2.352735490438462E+09,
2461421.500000000, A.D. 2027-Jan-16 00:00:00.0000, 4.951109743141150E+09, -1.071091370276327E+09, -2.354598950160571E+09,
2461428.500000000, A.D. 2027-Jan-23 00:00:00.0000, 4.951012848634443E+09, -1.068437122012657E+09, -2.356461754113588E+09,
2461435.500000000, A.D. 2027-Jan-30 00:00:00.0000, 4.950914633762782E+09, -1.065782630324869E+09, -2.358323901860140E+09,
2461442.500000000, A.D. 2027-Feb-06 00:00:00.0000, 4.950815099671694E+09, -1.063127894853692E+09, -2.360185393085307E+09,
2461449.500000000, A.D. 2027-Feb-13 00:00:00.0000, 4.950714248842400E+09, -1.060472914893846E+09, -2.362046227590971E+09,
2461456.500000000, A.D. 2027-Feb-20 00:00:00.0000, 4.950612083894511E+09, -1.057817687712757E+09, -2.363906405042601E+09,
2461463.500000000, A.D. 2027-Feb-27 00:00:00.0000, 4.950508605609720E+09, -1.055162209499308E+09, -2.365765924859338E+09,
2461470.500000000, A.D. 2027-Mar-06 00:00:00.0000, 4.950403813193933E+09, -1.052506477020060E+09, -2.367624786367276E+09,
2461477.500000000, A.D. 2027-Mar-13 00:00:00.0000, 4.950297705177321E+09, -1.049850487933484E+09, -2.369482988901888E+09,
2461484.500000000, A.D. 2027-Mar-20 00:00:00.0000, 4.950190279822753E+09, -1.047194240596852E+09, -2.371340531824368E+09,
2461491.500000000, A.D. 2027-Mar-27 00:00:00.0000, 4.950081535244518E+09, -1.044537733914732E+09, -2.373197414515458E+09,
2461498.500000000, A.D. 2027-Apr-03 00:00:00.0000, 4.949971469440298E+09, -1.041880967276813E+09, -2.375053636369347E+09,
2461505.500000000, A.D. 2027-Apr-10 00:00:00.0000, 4.949860080297583E+09, -1.039223940562013E+09, -2.376909196791476E+09,
2461512.500000000, A.D. 2027-Apr-17 00:00:00.0000, 4.949747365596632E+09, -1.036566654223165E+09, -2.378764095203460E+09,
2461519.500000000, A.D. 2027-Apr-24 00:00:00.0000, 4.949633323089191E+09, -1.033909109514448E+09, -2.380618331067530E+09,
2461526.500000000, A.D. 2027-May-01 00:00:00.0000, 4.949517950952580E+09, -1.031251308833763E+09, -2.382471903955676E+09,
2461533.500000000, A.D. 2027-May-08 00:00:00.0000, 4.949401248926570E+09, -1.028593255431637E+09, -2.384324813630548E+09,
2461540.500000000, A.D. 2027-May-15 00:00:00.0000, 4.949283218636162E+09, -1.025934951533238E+09, -2.386177059922844E+09,
2461547.500000000, A.D. 2027-May-22 00:00:00.0000, 4.949163861536414E+09, -1.023276397465104E+09, -2.388028642473569E+09,
2461554.500000000, A.D. 2027-May-29 00:00:00.0000, 4.949043177835232E+09, -1.020617593254832E+09, -2.389879560768837E+09,
2461561.500000000, A.D. 2027-Jun-05 00:00:00.0000, 4.948921167278968E+09, -1.017958539571983E+09, -2.391729814292358E+09,
2461568.500000000, A.D. 2027-Jun-12 00:00:00.0000, 4.948797829793307E+09, -1.015299237578409E+09, -2.393579402576107E+09,
2461575.500000000, A.D. 2027-Jun-19 00:00:00.0000, 4.948673165648403E+09, -1.012639688623015E+09, -2.395428325195041E+09,
2461582.500000000, A.D. 2027-Jun-26 00:00:00.0000, 4.948547175427691E+09, -1.009979894042260E+09, -2.397276581752713E+09,
2461589.500000000, A.D. 2027-Jul-03 00:00:00.0000, 4.948419859932508E+09, -1.007319855058115E+09, -2.399124171868968E+09,
2461596.500000000, A.D. 2027-Jul-10 00:00:00.0000, 4.948291220059367E+09, -1.004659572764743E+09, -2.400971095172176E+09,
2461603.500000000, A.D. 2027-Jul-17 00:00:00.0000, 4.948161256686201E+09, -1.001999048242764E+09, -2.402817351302254E+09,
2461610.500000000, A.D. 2027-Jul-24 00:00:00.0000, 4.948029970724051E+09, -9.993382828639148E+08, -2.404662939943706E+09,
2461617.500000000, A.D. 2027-Jul-31 00:00:00.0000, 4.947897363745604E+09, -9.966772785505873E+08, -2.406507860906944E+09,
2461624.500000000, A.D. 2027-Aug-07 00:00:00.0000, 4.947763438989844E+09, -9.940160368385131E+08, -2.408352114145178E+09,
2461631.500000000, A.D. 2027-Aug-14 00:00:00.0000, 4.947628200441730E+09, -9.913545569959152E+08, -2.410195699516422E+09,
2461638.500000000, A.D. 2027-Aug-21 00:00:00.0000, 4.947491650605095E+09, -9.886928365632966E+08, -2.412038616622191E+09,
2461645.500000000, A.D. 2027-Aug-28 00:00:00.0000, 4.947353790399835E+09, -9.860308731106594E+08, -2.413880864939300E+09,
2461652.500000000, A.D. 2027-Sep-04 00:00:00.0000, 4.947214620002250E+09, -9.833686647098455E+08, -2.415722443932045E+09,
2461659.500000000, A.D. 2027-Sep-11 00:00:00.0000, 4.947074139233203E+09, -9.807062097832953E+08, -2.417563353071027E+09,
2461666.500000000, A.D. 2027-Sep-18 00:00:00.0000, 4.946932347627304E+09, -9.780435069793072E+08, -2.419403591824245E+09,
2461673.500000000, A.D. 2027-Sep-25 00:00:00.0000, 4.946789244411956E+09, -9.753805551511937E+08, -2.421243159648012E+09,
2461680.500000000, A.D. 2027-Oct-02 00:00:00.0000, 4.946644828471359E+09, -9.727173534124349E+08, -2.423082055982634E+09,
2461687.500000000, A.D. 2027-Oct-09 00:00:00.0000, 4.946499098317960E+09, -9.700539012719383E+08, -2.424920280255501E+09,
2461694.500000000, A.D. 2027-Oct-16 00:00:00.0000, 4.946352052134631E+09, -9.673901989038634E+08, -2.426757831902117E+09,
2461701.500000000, A.D. 2027-Oct-23 00:00:00.0000, 4.946203688147582E+09, -9.647262475573050E+08, -2.428594710429544E+09,
2461708.500000000, A.D. 2027-Oct-30 00:00:00.0000, 4.946054005704854E+09, -9.620620494951649E+08, -2.430430915506897E+09,
2461715.500000000, A.D. 2027-Nov-06 00:00:00.0000, 4.945903005897063E+09, -9.593976063337771E+08, -2.432266446884084E+09,
2461722.500000000, A.D. 2027-Nov-13 00:00:00.0000, 4.945750689735055E+09, -9.567329178592815E+08, -2.434101304126455E+09,
2461729.500000000, A.D. 2027-Nov-20 00:00:00.0000, 4.945597056786372E+09, -9.540679835064406E+08, -2.435935486610132E+09,
2461736.500000000, A.D. 2027-Nov-27 00:00:00.0000, 4.945442105888119E+09, -9.514028035353237E+08, -2.437768993684110E+09,
2461743.500000000, A.D. 2027-Dec-04 00:00:00.0000, 4.945285835912744E+09, -9.487373789918476E+08, -2.439601824738797E+09,
2461750.500000000, A.D. 2027-Dec-11 00:00:00.0000, 4.945128246036089E+09, -9.460717114160609E+08, -2.441433979209235E+09,
2461757.500000000, A.D. 2027-Dec-18 00:00:00.0000, 4.944969335782753E+09, -9.434058026371763E+08, -2.443265456565841E+09,
2461764.500000000, A.D. 2027-Dec-25 00:00:00.0000, 4.944809105000719E+09, -9.407396546574117E+08, -2.445096256306719E+09,
2461771.500000000, A.D. 2028-Jan-01 00:00:00.0000, 4.944647553806688E+09, -9.380732696099463E+08, -2.446926377954022E+09,
$$EOE